[
  {
    "id": 1229,
    "name": "ابو بريقاء",
    "name_en": "Abu Burayqa",
    "cities_id": 26,
    "order": 615,
    "order_en": 1,
    "name_ar": "ابو بريقاء",
    "lat": 24.417278,
    "lng": 39.565142,
    "is_other": false,
    "searchable_text": "ابو بريقاء abu burayqa",
    "url_name_ar": "ابو-بريقاء",
    "url_name_en": "abu-burayqa"
  },
  {
    "id": 1231,
    "name": "ابوكبير",
    "name_en": "Abu Kabir",
    "cities_id": 26,
    "order": 616,
    "order_en": 2,
    "name_ar": "ابوكبير",
    "lat": 24.3883,
    "lng": 39.531771,
    "is_other": false,
    "searchable_text": "ابوكبير abu kabir",
    "url_name_ar": "ابوكبير",
    "url_name_en": "abu-kabir"
  },
  {
    "id": 1233,
    "name": "الاسكان",
    "name_en": "Al Iskan",
    "cities_id": 26,
    "order": 617,
    "order_en": 23,
    "name_ar": "الاسكان",
    "lat": 24.463764,
    "lng": 39.644915,
    "is_other": false,
    "searchable_text": "الاسكان al iskan",
    "url_name_ar": "الاسكان",
    "url_name_en": "al-iskan"
  },
  {
    "id": 1235,
    "name": "الاصيفرين",
    "name_en": "Al Usayfirin",
    "cities_id": 26,
    "order": 618,
    "order_en": 40,
    "name_ar": "الاصيفرين",
    "lat": 24.459897,
    "lng": 39.59122,
    "is_other": false,
    "searchable_text": "الاصيفرين al usayfirin",
    "url_name_ar": "الاصيفرين",
    "url_name_en": "al-usayfirin"
  },
  {
    "id": 1237,
    "name": "البركة",
    "name_en": "Al Barakah",
    "cities_id": 26,
    "order": 619,
    "order_en": 13,
    "name_ar": "البركة",
    "lat": 24.513738,
    "lng": 39.57168,
    "is_other": false,
    "searchable_text": "البركه al barakah",
    "url_name_ar": "البركة",
    "url_name_en": "al-barakah"
  },
  {
    "id": 1239,
    "name": "البلقاء",
    "name_en": "Al Balqa",
    "cities_id": 26,
    "order": 620,
    "order_en": 12,
    "name_ar": "البلقاء",
    "lat": 24.537317,
    "lng": 39.450965,
    "is_other": false,
    "searchable_text": "البلقاء al balqa",
    "url_name_ar": "البلقاء",
    "url_name_en": "al-balqa"
  },
  {
    "id": 1241,
    "name": "الجابرة",
    "name_en": "Al Jabirah",
    "cities_id": 26,
    "order": 621,
    "order_en": 24,
    "name_ar": "الجابرة",
    "lat": 24.401846,
    "lng": 39.586912,
    "is_other": false,
    "searchable_text": "الجابره al jabirah",
    "url_name_ar": "الجابرة",
    "url_name_en": "al-jabirah"
  },
  {
    "id": 1243,
    "name": "الجامعة",
    "name_en": "Al Jamiah",
    "cities_id": 26,
    "order": 622,
    "order_en": 26,
    "name_ar": "الجامعة",
    "lat": 24.484057,
    "lng": 39.560559,
    "is_other": false,
    "searchable_text": "الجامعه al jamiah",
    "url_name_ar": "الجامعة",
    "url_name_en": "al-jamiah"
  },
  {
    "id": 1245,
    "name": "الجماوات",
    "name_en": "Al Jamawat",
    "cities_id": 26,
    "order": 623,
    "order_en": 25,
    "name_ar": "الجماوات",
    "lat": 24.468367,
    "lng": 39.550403,
    "is_other": false,
    "searchable_text": "الجماوات al jamawat",
    "url_name_ar": "الجماوات",
    "url_name_en": "al-jamawat"
  },
  {
    "id": 1247,
    "name": "الجمعة",
    "name_en": "Al Jumuah",
    "cities_id": 26,
    "order": 624,
    "order_en": 28,
    "name_ar": "الجمعة",
    "lat": 24.453173,
    "lng": 39.615088,
    "is_other": false,
    "searchable_text": "الجمعه al jumuah",
    "url_name_ar": "الجمعة",
    "url_name_en": "al-jumuah"
  },
  {
    "id": 1249,
    "name": "الحبصة",
    "name_en": "Al Heisa",
    "cities_id": 26,
    "order": 625,
    "order_en": 21,
    "name_ar": "الحبصة",
    "lat": 24.524654,
    "lng": 39.569184,
    "is_other": false,
    "searchable_text": "الحبصه al heisa",
    "url_name_ar": "الحبصة",
    "url_name_en": "al-heisa"
  },
  {
    "id": 1251,
    "name": "الحديقة",
    "name_en": "Al Hadiqah",
    "cities_id": 26,
    "order": 626,
    "order_en": 17,
    "name_ar": "الحديقة",
    "lat": 24.415593,
    "lng": 39.61471,
    "is_other": false,
    "searchable_text": "الحديقه al hadiqah",
    "url_name_ar": "الحديقة",
    "url_name_en": "al-hadiqah"
  },
  {
    "id": 1253,
    "name": "الحرم",
    "name_en": "Al Haram",
    "cities_id": 26,
    "order": 627,
    "order_en": 20,
    "name_ar": "الحرم",
    "lat": 24.468605,
    "lng": 39.616391,
    "is_other": false,
    "searchable_text": "الحرم al haram",
    "url_name_ar": "الحرم",
    "url_name_en": "al-haram"
  },
  {
    "id": 1255,
    "name": "الحفيا",
    "name_en": "Al Hafya",
    "cities_id": 26,
    "order": 628,
    "order_en": 19,
    "name_ar": "الحفيا",
    "lat": 24.526598,
    "lng": 39.517605,
    "is_other": false,
    "searchable_text": "الحفيا al hafya",
    "url_name_ar": "الحفيا",
    "url_name_en": "al-hafya"
  },
  {
    "id": 1257,
    "name": "الخاتم",
    "name_en": "Al Khatim",
    "cities_id": 26,
    "order": 629,
    "order_en": 30,
    "name_ar": "الخاتم",
    "lat": 24.432129,
    "lng": 39.62369,
    "is_other": false,
    "searchable_text": "الخاتم al khatim",
    "url_name_ar": "الخاتم",
    "url_name_en": "al-khatim"
  },
  {
    "id": 1259,
    "name": "الخالدية",
    "name_en": "Al Khalidiyyah",
    "cities_id": 26,
    "order": 630,
    "order_en": 29,
    "name_ar": "الخالدية",
    "lat": 24.459182,
    "lng": 39.660907,
    "is_other": false,
    "searchable_text": "الخالديه al khalidiyyah",
    "url_name_ar": "الخالدية",
    "url_name_en": "al-khalidiyyah"
  },
  {
    "id": 1261,
    "name": "الدار",
    "name_en": "Ad Dar",
    "cities_id": 26,
    "order": 631,
    "order_en": 3,
    "name_ar": "الدار",
    "lat": 24.526741,
    "lng": 39.646958,
    "is_other": false,
    "searchable_text": "الدار ad dar",
    "url_name_ar": "الدار",
    "url_name_en": "ad-dar"
  },
  {
    "id": 1263,
    "name": "الدفاع",
    "name_en": "Ad Difa",
    "cities_id": 26,
    "order": 632,
    "order_en": 4,
    "name_ar": "الدفاع",
    "lat": 24.450159,
    "lng": 39.516586,
    "is_other": false,
    "searchable_text": "الدفاع ad difa",
    "url_name_ar": "الدفاع",
    "url_name_en": "ad-difa"
  },
  {
    "id": 1265,
    "name": "الدويخلة",
    "name_en": "Ad Duwaikhilah",
    "cities_id": 26,
    "order": 633,
    "order_en": 5,
    "name_ar": "الدويخلة",
    "lat": 24.504496,
    "lng": 39.680476,
    "is_other": false,
    "searchable_text": "الدويخله ad duwaikhilah",
    "url_name_ar": "الدويخلة",
    "url_name_en": "ad-duwaikhilah"
  },
  {
    "id": 1267,
    "name": "الدويمة",
    "name_en": "Ad Duwaimah",
    "cities_id": 26,
    "order": 634,
    "order_en": 6,
    "name_ar": "الدويمة",
    "lat": 24.445139,
    "lng": 39.610048,
    "is_other": false,
    "searchable_text": "الدويمه ad duwaimah",
    "url_name_ar": "الدويمة",
    "url_name_en": "ad-duwaimah"
  },
  {
    "id": 1269,
    "name": "الرانوناء",
    "name_en": "Ar Ranuna",
    "cities_id": 26,
    "order": 635,
    "order_en": 50,
    "name_ar": "الرانوناء",
    "lat": 24.390309,
    "lng": 39.604988,
    "is_other": false,
    "searchable_text": "الرانوناء ar ranuna",
    "url_name_ar": "الرانوناء",
    "url_name_en": "ar-ranuna"
  },
  {
    "id": 1271,
    "name": "الراية",
    "name_en": "Ar Rayah",
    "cities_id": 26,
    "order": 636,
    "order_en": 52,
    "name_ar": "الراية",
    "lat": 24.488117,
    "lng": 39.597429,
    "is_other": false,
    "searchable_text": "الرايه ar rayah",
    "url_name_ar": "الراية",
    "url_name_en": "ar-rayah"
  },
  {
    "id": 1273,
    "name": "الرمانة",
    "name_en": "Ar Rummanah",
    "cities_id": 26,
    "order": 637,
    "order_en": 53,
    "name_ar": "الرمانة",
    "lat": 24.402222,
    "lng": 39.685897,
    "is_other": false,
    "searchable_text": "الرمانه ar rummanah",
    "url_name_ar": "الرمانة",
    "url_name_en": "ar-rummanah"
  },
  {
    "id": 1275,
    "name": "الروابي",
    "name_en": "Ar Rawabi",
    "cities_id": 26,
    "order": 638,
    "order_en": 51,
    "name_ar": "الروابي",
    "lat": 24.423974,
    "lng": 39.652336,
    "is_other": false,
    "searchable_text": "الروابي ar rawabi",
    "url_name_ar": "الروابي",
    "url_name_en": "ar-rawabi"
  },
  {
    "id": 1277,
    "name": "الزهرة",
    "name_en": "Az Zahrah",
    "cities_id": 26,
    "order": 639,
    "order_en": 66,
    "name_ar": "الزهرة",
    "lat": 24.518597,
    "lng": 39.566054,
    "is_other": false,
    "searchable_text": "الزهره az zahrah",
    "url_name_ar": "الزهرة",
    "url_name_en": "az-zahrah"
  },
  {
    "id": 1279,
    "name": "السد",
    "name_en": "As Sad",
    "cities_id": 26,
    "order": 640,
    "order_en": 54,
    "name_ar": "السد",
    "lat": 24.399222,
    "lng": 39.644137,
    "is_other": false,
    "searchable_text": "السد as sad",
    "url_name_ar": "السد",
    "url_name_en": "as-sad"
  },
  {
    "id": 1281,
    "name": "السقيا",
    "name_en": "As Suqya",
    "cities_id": 26,
    "order": 641,
    "order_en": 61,
    "name_ar": "السقيا",
    "lat": 24.463375,
    "lng": 39.59622,
    "is_other": false,
    "searchable_text": "السقيا as suqya",
    "url_name_ar": "السقيا",
    "url_name_en": "as-suqya"
  },
  {
    "id": 1283,
    "name": "السكب",
    "name_en": "As Sakb",
    "cities_id": 26,
    "order": 642,
    "order_en": 56,
    "name_ar": "السكب",
    "lat": 24.355968,
    "lng": 39.565075,
    "is_other": false,
    "searchable_text": "السكب as sakb",
    "url_name_ar": "السكب",
    "url_name_en": "as-sakb"
  },
  {
    "id": 1285,
    "name": "السكة الحديد",
    "name_en": "As Sikkah Al Hadid",
    "cities_id": 26,
    "order": 643,
    "order_en": 59,
    "name_ar": "السكة الحديد",
    "lat": 24.450306,
    "lng": 39.494314,
    "is_other": false,
    "searchable_text": "السكه الحديد as sikkah al hadid",
    "url_name_ar": "السكة-الحديد",
    "url_name_en": "as-sikkah-al-hadid"
  },
  {
    "id": 1287,
    "name": "السلام",
    "name_en": "As Salam",
    "cities_id": 26,
    "order": 644,
    "order_en": 57,
    "name_ar": "السلام",
    "lat": 24.465078,
    "lng": 39.541124,
    "is_other": false,
    "searchable_text": "السلام as salam",
    "url_name_ar": "السلام",
    "url_name_en": "as-salam"
  },
  {
    "id": 1289,
    "name": "السيح",
    "name_en": "As Sih",
    "cities_id": 26,
    "order": 645,
    "order_en": 58,
    "name_ar": "السيح",
    "lat": 23.63313,
    "lng": 39.736915,
    "is_other": false,
    "searchable_text": "السيح as sih",
    "url_name_ar": "السيح",
    "url_name_en": "as-sih"
  },
  {
    "id": 1291,
    "name": "الشافية",
    "name_en": "Ash Shafiyah",
    "cities_id": 26,
    "order": 646,
    "order_en": 62,
    "name_ar": "الشافية",
    "lat": 24.548477,
    "lng": 39.624142,
    "is_other": false,
    "searchable_text": "الشافيه ash shafiyah",
    "url_name_ar": "الشافية",
    "url_name_en": "ash-shafiyah"
  },
  {
    "id": 1293,
    "name": "الشريبات",
    "name_en": "Ash Shuraybat",
    "cities_id": 26,
    "order": 647,
    "order_en": 64,
    "name_ar": "الشريبات",
    "lat": 24.449801,
    "lng": 39.640538,
    "is_other": false,
    "searchable_text": "الشريبات ash shuraybat",
    "url_name_ar": "الشريبات",
    "url_name_en": "ash-shuraybat"
  },
  {
    "id": 1295,
    "name": "الشهباء",
    "name_en": "Ash Shahba",
    "cities_id": 26,
    "order": 648,
    "order_en": 63,
    "name_ar": "الشهباء",
    "lat": 24.381912,
    "lng": 39.552107,
    "is_other": false,
    "searchable_text": "الشهباء ash shahba",
    "url_name_ar": "الشهباء",
    "url_name_en": "ash-shahba"
  },
  {
    "id": 1297,
    "name": "الصادقية",
    "name_en": "As Sadiqiyyah",
    "cities_id": 26,
    "order": 649,
    "order_en": 55,
    "name_ar": "الصادقية",
    "lat": 24.549947,
    "lng": 39.581026,
    "is_other": false,
    "searchable_text": "الصادقيه as sadiqiyyah",
    "url_name_ar": "الصادقية",
    "url_name_en": "as-sadiqiyyah"
  },
  {
    "id": 1299,
    "name": "الظاهرة",
    "name_en": "Adh Dhahirah",
    "cities_id": 26,
    "order": 650,
    "order_en": 7,
    "name_ar": "الظاهرة",
    "lat": 24.448109,
    "lng": 39.599277,
    "is_other": false,
    "searchable_text": "الظاهره adh dhahirah",
    "url_name_ar": "الظاهرة",
    "url_name_en": "adh-dhahirah"
  },
  {
    "id": 1301,
    "name": "العريض",
    "name_en": "Al Aridh",
    "cities_id": 26,
    "order": 651,
    "order_en": 11,
    "name_ar": "العريض",
    "lat": 24.477567,
    "lng": 39.646293,
    "is_other": false,
    "searchable_text": "العريض al aridh",
    "url_name_ar": "العريض",
    "url_name_en": "al-aridh"
  },
  {
    "id": 1303,
    "name": "العزيزية",
    "name_en": "Alaaziziyah",
    "cities_id": 26,
    "order": 652,
    "order_en": 46,
    "name_ar": "العزيزية",
    "lat": 24.418835,
    "lng": 39.504295,
    "is_other": false,
    "searchable_text": "العزيزيه alaaziziyah",
    "url_name_ar": "العزيزية",
    "url_name_en": "alaaziziyah"
  },
  {
    "id": 1305,
    "name": "العصبة",
    "name_en": "Al Usbah",
    "cities_id": 26,
    "order": 653,
    "order_en": 41,
    "name_ar": "العصبة",
    "lat": 24.430157,
    "lng": 39.615658,
    "is_other": false,
    "searchable_text": "العصبه al usbah",
    "url_name_ar": "العصبة",
    "url_name_en": "al-usbah"
  },
  {
    "id": 1307,
    "name": "العنابس",
    "name_en": "Al Anabis",
    "cities_id": 26,
    "order": 654,
    "order_en": 8,
    "name_ar": "العنابس",
    "lat": 24.475235,
    "lng": 39.585926,
    "is_other": false,
    "searchable_text": "العنابس al anabis",
    "url_name_ar": "العنابس",
    "url_name_en": "al-anabis"
  },
  {
    "id": 1309,
    "name": "العهن",
    "name_en": "Al Ihn",
    "cities_id": 26,
    "order": 655,
    "order_en": 22,
    "name_ar": "العهن",
    "lat": 24.434539,
    "lng": 39.633778,
    "is_other": false,
    "searchable_text": "العهن al ihn",
    "url_name_ar": "العهن",
    "url_name_en": "al-ihn"
  },
  {
    "id": 1311,
    "name": "العيون",
    "name_en": "Al Uyun",
    "cities_id": 26,
    "order": 656,
    "order_en": 42,
    "name_ar": "العيون",
    "lat": 24.512509,
    "lng": 39.58627,
    "is_other": false,
    "searchable_text": "العيون al uyun",
    "url_name_ar": "العيون",
    "url_name_en": "al-uyun"
  },
  {
    "id": 1313,
    "name": "الغابة",
    "name_en": "Al Ghabah",
    "cities_id": 26,
    "order": 657,
    "order_en": 15,
    "name_ar": "الغابة",
    "lat": 24.561078,
    "lng": 39.603111,
    "is_other": false,
    "searchable_text": "الغابه al ghabah",
    "url_name_ar": "الغابة",
    "url_name_en": "al-ghabah"
  },
  {
    "id": 1315,
    "name": "الغراء",
    "name_en": "Al Gharra",
    "cities_id": 26,
    "order": 658,
    "order_en": 16,
    "name_ar": "الغراء",
    "lat": 24.404963,
    "lng": 39.662758,
    "is_other": false,
    "searchable_text": "الغراء al gharra",
    "url_name_ar": "الغراء",
    "url_name_en": "al-gharra"
  },
  {
    "id": 1317,
    "name": "الفتح",
    "name_en": "Al Fath",
    "cities_id": 26,
    "order": 659,
    "order_en": 14,
    "name_ar": "الفتح",
    "lat": 24.480659,
    "lng": 39.593832,
    "is_other": false,
    "searchable_text": "الفتح al fath",
    "url_name_ar": "الفتح",
    "url_name_en": "al-fath"
  },
  {
    "id": 1319,
    "name": "القبلتين",
    "name_en": "Al Qiblatayn",
    "cities_id": 26,
    "order": 660,
    "order_en": 38,
    "name_ar": "القبلتين",
    "lat": 24.479942,
    "lng": 39.577549,
    "is_other": false,
    "searchable_text": "القبلتين al qiblatayn",
    "url_name_ar": "القبلتين",
    "url_name_en": "al-qiblatayn"
  },
  {
    "id": 1321,
    "name": "القصواء",
    "name_en": "Al Qaswa",
    "cities_id": 26,
    "order": 661,
    "order_en": 37,
    "name_ar": "القصواء",
    "lat": 24.429131,
    "lng": 39.585674,
    "is_other": false,
    "searchable_text": "القصواء al qaswa",
    "url_name_ar": "القصواء",
    "url_name_en": "al-qaswa"
  },
  {
    "id": 1323,
    "name": "القلعة",
    "name_en": "Al Qalat",
    "cities_id": 26,
    "order": 662,
    "order_en": 36,
    "name_ar": "القلعة",
    "lat": 24.447534,
    "lng": 39.612742,
    "is_other": false,
    "searchable_text": "القلعه al qalat",
    "url_name_ar": "القلعة",
    "url_name_en": "al-qalat"
  },
  {
    "id": 1325,
    "name": "المبعوث",
    "name_en": "Al Mabuth",
    "cities_id": 26,
    "order": 663,
    "order_en": 31,
    "name_ar": "المبعوث",
    "lat": 24.4882,
    "lng": 39.677156,
    "is_other": false,
    "searchable_text": "المبعوث al mabuth",
    "url_name_ar": "المبعوث",
    "url_name_en": "al-mabuth"
  },
  {
    "id": 1327,
    "name": "المصانع",
    "name_en": "Al Masani",
    "cities_id": 26,
    "order": 664,
    "order_en": 33,
    "name_ar": "المصانع",
    "lat": 24.478178,
    "lng": 39.606581,
    "is_other": false,
    "searchable_text": "المصانع al masani",
    "url_name_ar": "المصانع",
    "url_name_en": "al-masani"
  },
  {
    "id": 1329,
    "name": "المطار",
    "name_en": "Al Matar",
    "cities_id": 26,
    "order": 665,
    "order_en": 34,
    "name_ar": "المطار",
    "lat": 24.547702,
    "lng": 39.685708,
    "is_other": false,
    "searchable_text": "المطار al matar",
    "url_name_ar": "المطار",
    "url_name_en": "al-matar"
  },
  {
    "id": 1331,
    "name": "المغيسلة",
    "name_en": "Al Mughaisilah",
    "cities_id": 26,
    "order": 666,
    "order_en": 35,
    "name_ar": "المغيسلة",
    "lat": 24.45442,
    "lng": 39.6057,
    "is_other": false,
    "searchable_text": "المغيسله al mughaisilah",
    "url_name_ar": "المغيسلة",
    "url_name_en": "al-mughaisilah"
  },
  {
    "id": 1333,
    "name": "الملك فهد",
    "name_en": "King Fahd",
    "cities_id": 26,
    "order": 667,
    "order_en": 83,
    "name_ar": "الملك فهد",
    "lat": 24.506418,
    "lng": 39.694882,
    "is_other": false,
    "searchable_text": "الملك فهد king fahd",
    "url_name_ar": "الملك-فهد",
    "url_name_en": "king-fahd"
  },
  {
    "id": 1335,
    "name": "المناخة",
    "name_en": "Al Manakhah",
    "cities_id": 26,
    "order": 668,
    "order_en": 32,
    "name_ar": "المناخة",
    "lat": 24.471173,
    "lng": 39.604872,
    "is_other": false,
    "searchable_text": "المناخه al manakhah",
    "url_name_ar": "المناخة",
    "url_name_en": "al-manakhah"
  },
  {
    "id": 1337,
    "name": "المنطقة الصناعية",
    "name_en": "As Sinaiyah",
    "cities_id": 26,
    "order": 669,
    "order_en": 60,
    "name_ar": "المنطقة الصناعية",
    "lat": 24.389987,
    "lng": 39.500029,
    "is_other": false,
    "searchable_text": "المنطقه الصناعيه as sinaiyah",
    "url_name_ar": "المنطقة-الصناعية",
    "url_name_en": "as-sinaiyah"
  },
  {
    "id": 1339,
    "name": "النخيل",
    "name_en": "An Nakhil",
    "cities_id": 26,
    "order": 670,
    "order_en": 47,
    "name_ar": "النخيل",
    "lat": 24.522476,
    "lng": 39.544501,
    "is_other": false,
    "searchable_text": "النخيل an nakhil",
    "url_name_ar": "النخيل",
    "url_name_en": "an-nakhil"
  },
  {
    "id": 1341,
    "name": "النقاء",
    "name_en": "An Naqa",
    "cities_id": 26,
    "order": 671,
    "order_en": 48,
    "name_ar": "النقاء",
    "lat": 24.466342,
    "lng": 39.604066,
    "is_other": false,
    "searchable_text": "النقاء an naqa",
    "url_name_ar": "النقاء",
    "url_name_en": "an-naqa"
  },
  {
    "id": 1343,
    "name": "النقس",
    "name_en": "An Naqs",
    "cities_id": 26,
    "order": 672,
    "order_en": 49,
    "name_ar": "النقس",
    "lat": 24.553685,
    "lng": 39.622206,
    "is_other": false,
    "searchable_text": "النقس an naqs",
    "url_name_ar": "النقس",
    "url_name_en": "an-naqs"
  },
  {
    "id": 1345,
    "name": "الهدراء",
    "name_en": "Al Hadra",
    "cities_id": 26,
    "order": 673,
    "order_en": 18,
    "name_ar": "الهدراء",
    "lat": 24.46596,
    "lng": 39.700094,
    "is_other": false,
    "searchable_text": "الهدراء al hadra",
    "url_name_ar": "الهدراء",
    "url_name_en": "al-hadra"
  },
  {
    "id": 1347,
    "name": "الوبرة",
    "name_en": "Al Wabra",
    "cities_id": 26,
    "order": 674,
    "order_en": 43,
    "name_ar": "الوبرة",
    "lat": 24.458865,
    "lng": 39.579729,
    "is_other": false,
    "searchable_text": "الوبره al wabra",
    "url_name_ar": "الوبرة",
    "url_name_en": "al-wabra"
  },
  {
    "id": 1349,
    "name": "ام خالد",
    "name_en": "Umm Khalid",
    "cities_id": 26,
    "order": 675,
    "order_en": 98,
    "name_ar": "ام خالد",
    "lat": 24.42624,
    "lng": 39.545603,
    "is_other": false,
    "searchable_text": "ام خالد umm khalid",
    "url_name_ar": "ام-خالد",
    "url_name_en": "umm-khalid"
  },
  {
    "id": 1351,
    "name": "بئر عثمان",
    "name_en": "Bir Uthman",
    "cities_id": 26,
    "order": 676,
    "order_en": 75,
    "name_ar": "بئر عثمان",
    "lat": 24.493167,
    "lng": 39.585267,
    "is_other": false,
    "searchable_text": "بئر عثمان bir uthman",
    "url_name_ar": "بئر-عثمان",
    "url_name_en": "bir-uthman"
  },
  {
    "id": 1353,
    "name": "بضاعة",
    "name_en": "Badaah",
    "cities_id": 26,
    "order": 677,
    "order_en": 67,
    "name_ar": "بضاعة",
    "lat": 24.472633,
    "lng": 39.611075,
    "is_other": false,
    "searchable_text": "بضاعه badaah",
    "url_name_ar": "بضاعة",
    "url_name_en": "badaah"
  },
  {
    "id": 1355,
    "name": "بني بياصة",
    "name_en": "Bani Bayadah",
    "cities_id": 26,
    "order": 678,
    "order_en": 69,
    "name_ar": "بني بياصة",
    "lat": 24.38228,
    "lng": 39.589417,
    "is_other": false,
    "searchable_text": "بني بياصه bani bayadah",
    "url_name_ar": "بني-بياصة",
    "url_name_en": "bani-bayadah"
  },
  {
    "id": 1357,
    "name": "بني حارثة",
    "name_en": "Bani Harithah",
    "cities_id": 26,
    "order": 679,
    "order_en": 71,
    "name_ar": "بني حارثة",
    "lat": 24.490663,
    "lng": 39.630134,
    "is_other": false,
    "searchable_text": "بني حارثه bani harithah",
    "url_name_ar": "بني-حارثة",
    "url_name_en": "bani-harithah"
  },
  {
    "id": 1359,
    "name": "بني خدرة",
    "name_en": "Bani Khidrah",
    "cities_id": 26,
    "order": 680,
    "order_en": 72,
    "name_ar": "بني خدرة",
    "lat": 24.46414,
    "lng": 39.612353,
    "is_other": false,
    "searchable_text": "بني خدره bani khidrah",
    "url_name_ar": "بني-خدرة",
    "url_name_en": "bani-khidrah"
  },
  {
    "id": 1361,
    "name": "بني ظفر",
    "name_en": "Bani Dhafar",
    "cities_id": 26,
    "order": 681,
    "order_en": 70,
    "name_ar": "بني ظفر",
    "lat": 24.461606,
    "lng": 39.628124,
    "is_other": false,
    "searchable_text": "بني ظفر bani dhafar",
    "url_name_ar": "بني-ظفر",
    "url_name_en": "bani-dhafar"
  },
  {
    "id": 1363,
    "name": "بني عبدالاشهل",
    "name_en": "Bani Abdul Ashhal",
    "cities_id": 26,
    "order": 682,
    "order_en": 68,
    "name_ar": "بني عبدالاشهل",
    "lat": 24.480684,
    "lng": 39.620237,
    "is_other": false,
    "searchable_text": "بني عبدالاشهل bani abdul ashhal",
    "url_name_ar": "بني-عبدالاشهل",
    "url_name_en": "bani-abdul-ashhal"
  },
  {
    "id": 1365,
    "name": "بني معاوية",
    "name_en": "Bani Muawiyah",
    "cities_id": 26,
    "order": 683,
    "order_en": 73,
    "name_ar": "بني معاوية",
    "lat": 24.472583,
    "lng": 39.627237,
    "is_other": false,
    "searchable_text": "بني معاويه bani muawiyah",
    "url_name_ar": "بني-معاوية",
    "url_name_en": "bani-muawiyah"
  },
  {
    "id": 1367,
    "name": "جبل احد",
    "name_en": "Uhud Mountain",
    "cities_id": 26,
    "order": 684,
    "order_en": 97,
    "name_ar": "جبل احد",
    "lat": 24.52177,
    "lng": 39.626006,
    "is_other": false,
    "searchable_text": "جبل احد uhud mountain",
    "url_name_ar": "جبل-احد",
    "url_name_en": "uhud-mountain"
  },
  {
    "id": 1369,
    "name": "حثم",
    "name_en": "Hathm",
    "cities_id": 26,
    "order": 685,
    "order_en": 79,
    "name_ar": "حثم",
    "lat": 24.454407,
    "lng": 39.673708,
    "is_other": false,
    "searchable_text": "حثم hathm",
    "url_name_ar": "حثم",
    "url_name_en": "hathm"
  },
  {
    "id": 1371,
    "name": "خاخ",
    "name_en": "Khakh",
    "cities_id": 26,
    "order": 686,
    "order_en": 82,
    "name_ar": "خاخ",
    "lat": 24.368294,
    "lng": 39.540728,
    "is_other": false,
    "searchable_text": "خاخ khakh",
    "url_name_ar": "خاخ",
    "url_name_en": "khakh"
  },
  {
    "id": 1373,
    "name": "ذو الحليفة",
    "name_en": "Dhu Al Hulayfah",
    "cities_id": 26,
    "order": 687,
    "order_en": 78,
    "name_ar": "ذو الحليفة",
    "lat": 24.428436,
    "lng": 39.568283,
    "is_other": false,
    "searchable_text": "ذو الحليفه dhu al hulayfah",
    "url_name_ar": "ذو-الحليفة",
    "url_name_en": "dhu-al-hulayfah"
  },
  {
    "id": 1375,
    "name": "رهط",
    "name_en": "Rahat",
    "cities_id": 26,
    "order": 688,
    "order_en": 92,
    "name_ar": "رهط",
    "lat": 24.376701,
    "lng": 39.630454,
    "is_other": false,
    "searchable_text": "رهط rahat",
    "url_name_ar": "رهط",
    "url_name_en": "rahat"
  },
  {
    "id": 1377,
    "name": "سيد الشهداء",
    "name_en": "Sayed As Shuhada",
    "cities_id": 26,
    "order": 689,
    "order_en": 93,
    "name_ar": "سيد الشهداء",
    "lat": 24.507477,
    "lng": 39.612276,
    "is_other": false,
    "searchable_text": "سيد الشهداء sayed as shuhada",
    "url_name_ar": "سيد-الشهداء",
    "url_name_en": "sayed-as-shuhada"
  },
  {
    "id": 1379,
    "name": "شظاه",
    "name_en": "Shadhah",
    "cities_id": 26,
    "order": 690,
    "order_en": 94,
    "name_ar": "شظاه",
    "lat": 24.493045,
    "lng": 39.655585,
    "is_other": false,
    "searchable_text": "شظاه shadhah",
    "url_name_ar": "شظاه",
    "url_name_en": "shadhah"
  },
  {
    "id": 1381,
    "name": "شوران",
    "name_en": "Shuran",
    "cities_id": 26,
    "order": 691,
    "order_en": 95,
    "name_ar": "شوران",
    "lat": 24.389451,
    "lng": 39.624433,
    "is_other": false,
    "searchable_text": "شوران shuran",
    "url_name_ar": "شوران",
    "url_name_en": "shuran"
  },
  {
    "id": 1383,
    "name": "طيبة",
    "name_en": "Tayba",
    "cities_id": 26,
    "order": 692,
    "order_en": 96,
    "name_ar": "طيبة",
    "lat": 24.493457,
    "lng": 39.527134,
    "is_other": false,
    "searchable_text": "طيبه tayba",
    "url_name_ar": "طيبة",
    "url_name_en": "tayba"
  },
  {
    "id": 1385,
    "name": "عروة",
    "name_en": "Urwah",
    "cities_id": 26,
    "order": 693,
    "order_en": 99,
    "name_ar": "عروة",
    "lat": 24.44667,
    "lng": 39.589454,
    "is_other": false,
    "searchable_text": "عروه urwah",
    "url_name_ar": "عروة",
    "url_name_en": "urwah"
  },
  {
    "id": 1387,
    "name": "عين الخيف",
    "name_en": "Ayn Al Khif",
    "cities_id": 26,
    "order": 694,
    "order_en": 65,
    "name_ar": "عين الخيف",
    "lat": 24.446572,
    "lng": 39.690541,
    "is_other": false,
    "searchable_text": "عين الخيف ayn al khif",
    "url_name_ar": "عين-الخيف",
    "url_name_en": "ayn-al-khif"
  },
  {
    "id": 1389,
    "name": "قربان",
    "name_en": "Qurban",
    "cities_id": 26,
    "order": 695,
    "order_en": 91,
    "name_ar": "قربان",
    "lat": 24.45953,
    "lng": 39.619258,
    "is_other": false,
    "searchable_text": "قربان qurban",
    "url_name_ar": "قربان",
    "url_name_en": "qurban"
  },
  {
    "id": 1391,
    "name": "قلعة مخيط",
    "name_en": "Qalat Makhit",
    "cities_id": 26,
    "order": 696,
    "order_en": 90,
    "name_ar": "قلعة مخيط",
    "lat": 24.487275,
    "lng": 39.494303,
    "is_other": false,
    "searchable_text": "قلعه مخيط qalat makhit",
    "url_name_ar": "قلعة-مخيط",
    "url_name_en": "qalat-makhit"
  },
  {
    "id": 1393,
    "name": "كتانة",
    "name_en": "Kittanah",
    "cities_id": 26,
    "order": 697,
    "order_en": 84,
    "name_ar": "كتانة",
    "lat": 24.559803,
    "lng": 39.553443,
    "is_other": false,
    "searchable_text": "كتانه kittanah",
    "url_name_ar": "كتانة",
    "url_name_en": "kittanah"
  },
  {
    "id": 1395,
    "name": "مذينب",
    "name_en": "Mudhainib",
    "cities_id": 26,
    "order": 698,
    "order_en": 88,
    "name_ar": "مذينب",
    "lat": 24.442719,
    "lng": 39.677182,
    "is_other": false,
    "searchable_text": "مذينب mudhainib",
    "url_name_ar": "مذينب",
    "url_name_en": "mudhainib"
  },
  {
    "id": 1397,
    "name": "مسجد الدرع",
    "name_en": "Masjid Ad Dar",
    "cities_id": 26,
    "order": 699,
    "order_en": 87,
    "name_ar": "مسجد الدرع",
    "lat": 24.490362,
    "lng": 39.606913,
    "is_other": false,
    "searchable_text": "مسجد الدرع masjid ad dar",
    "url_name_ar": "مسجد-الدرع",
    "url_name_en": "masjid-ad-dar"
  },
  {
    "id": 1399,
    "name": "مهزور",
    "name_en": "Mahzur",
    "cities_id": 26,
    "order": 700,
    "order_en": 86,
    "name_ar": "مهزور",
    "lat": 24.442015,
    "lng": 39.651164,
    "is_other": false,
    "searchable_text": "مهزور mahzur",
    "url_name_ar": "مهزور",
    "url_name_en": "mahzur"
  },
  {
    "id": 1401,
    "name": "نبلاء",
    "name_en": "Nubala",
    "cities_id": 26,
    "order": 701,
    "order_en": 89,
    "name_ar": "نبلاء",
    "lat": 24.382502,
    "lng": 39.664712,
    "is_other": false,
    "searchable_text": "نبلاء nubala",
    "url_name_ar": "نبلاء",
    "url_name_en": "nubala"
  },
  {
    "id": 1403,
    "name": "ورقان",
    "name_en": "Warqan",
    "cities_id": 26,
    "order": 702,
    "order_en": 102,
    "name_ar": "ورقان",
    "lat": 24.380459,
    "lng": 39.520044,
    "is_other": false,
    "searchable_text": "ورقان warqan",
    "url_name_ar": "ورقان",
    "url_name_en": "warqan"
  },
  {
    "id": 1405,
    "name": "وعيرة",
    "name_en": "Wairah",
    "cities_id": 26,
    "order": 703,
    "order_en": 101,
    "name_ar": "وعيرة",
    "lat": 24.542568,
    "lng": 39.674927,
    "is_other": false,
    "searchable_text": "وعيره wairah",
    "url_name_ar": "وعيرة",
    "url_name_en": "wairah"
  },
  {
    "id": 13581,
    "name": "العلا",
    "name_en": "Al Ula",
    "cities_id": 26,
    "order": 705,
    "order_en": 39,
    "name_ar": "العلا",
    "lat": 26.603139,
    "lng": 37.929482,
    "is_other": false,
    "searchable_text": "العلا al ula",
    "url_name_ar": "العلا",
    "url_name_en": "al-ula"
  },
  {
    "id": 15198,
    "name": "الحناكية",
    "name_en": "Al-Hanakia",
    "cities_id": 26,
    "order": 707,
    "order_en": 44,
    "name_ar": "الحناكية",
    "lat": 24.630692,
    "lng": 40.958688,
    "is_other": false,
    "searchable_text": "الحناكيه al-hanakia",
    "url_name_ar": "الحناكية",
    "url_name_en": "al-hanakia"
  },
  {
    "id": 16445,
    "name": "مهد الذهب",
    "name_en": "Mahd Al-Thahab",
    "cities_id": 26,
    "order": 708,
    "order_en": 85,
    "name_ar": "مهد الذهب",
    "lat": 23.496331,
    "lng": 40.863306,
    "is_other": false,
    "searchable_text": "مهد الذهب mahd al-thahab",
    "url_name_ar": "مهد-الذهب",
    "url_name_en": "mahd-al-thahab"
  },
  {
    "id": 17301,
    "name": "الجصة",
    "name_en": "Al Jassah",
    "cities_id": 26,
    "order": 710,
    "order_en": 27,
    "name_ar": "الجصة",
    "lat": 24.359734,
    "lng": 39.613096,
    "is_other": false,
    "searchable_text": "الجصه al jassah",
    "url_name_ar": "الجصة",
    "url_name_en": "al-jassah"
  },
  {
    "id": 17303,
    "name": "العنابس",
    "name_en": "Al Anabis",
    "cities_id": 26,
    "order": 711,
    "order_en": 9,
    "name_ar": "العنابس",
    "lat": 24.472723,
    "lng": 39.586023,
    "is_other": false,
    "searchable_text": "العنابس al anabis",
    "url_name_ar": "العنابس",
    "url_name_en": "al-anabis"
  },
  {
    "id": 17305,
    "name": "المنطقة المركزية",
    "name_en": "Central District",
    "cities_id": 26,
    "order": 712,
    "order_en": 77,
    "name_ar": "المنطقة المركزية",
    "lat": 24.469157,
    "lng": 39.605138,
    "is_other": false,
    "searchable_text": "المنطقه المركزيه central district",
    "url_name_ar": "المنطقة-المركزية",
    "url_name_en": "central-district"
  },
  {
    "id": 17307,
    "name": "جبل عير",
    "name_en": "Jabal Ayr",
    "cities_id": 26,
    "order": 713,
    "order_en": 80,
    "name_ar": "جبل عير",
    "lat": 24.388343,
    "lng": 39.574513,
    "is_other": false,
    "searchable_text": "جبل عير jabal ayr",
    "url_name_ar": "جبل-عير",
    "url_name_en": "jabal-ayr"
  },
  {
    "id": 17309,
    "name": "العاقول",
    "name_en": "Al Aqool",
    "cities_id": 26,
    "order": 714,
    "order_en": 10,
    "name_ar": "العاقول",
    "lat": 24.522289,
    "lng": 39.715824,
    "is_other": false,
    "searchable_text": "العاقول al aqool",
    "url_name_ar": "العاقول",
    "url_name_en": "al-aqool"
  },
  {
    "id": 17311,
    "name": "وادي البطان",
    "name_en": "Wadi Al Battan",
    "cities_id": 26,
    "order": 715,
    "order_en": 100,
    "name_ar": "وادي البطان",
    "lat": 24.524921,
    "lng": 39.804001,
    "is_other": false,
    "searchable_text": "وادي البطان wadi al battan",
    "url_name_ar": "وادي-البطان",
    "url_name_en": "wadi-al-battan"
  },
  {
    "id": 17313,
    "name": "جبل جمة وغرابة",
    "name_en": "Jable Jammah and Ghurabah",
    "cities_id": 26,
    "order": 716,
    "order_en": 81,
    "name_ar": "جبل جمة وغرابة",
    "lat": null,
    "lng": null,
    "is_other": false,
    "searchable_text": "جبل جمه وغرابه jable jammah and ghurabah",
    "url_name_ar": "جبل-جمة-وغرابة",
    "url_name_en": "jable-jammah-and-ghurabah"
  },
  {
    "id": 18759,
    "name": "أبيار الماشي",
    "name_en": "Bi'r Al-Mashi",
    "cities_id": 26,
    "order": 717,
    "order_en": 74,
    "name_ar": "أبيار الماشي",
    "lat": 24.219964,
    "lng": 39.54993,
    "is_other": false,
    "searchable_text": "ابيار الماشي bi'r al-mashi",
    "url_name_ar": "أبيار-الماشي",
    "url_name_en": "bi-r-al-mashi"
  },
  {
    "id": 18761,
    "name": "المليليح",
    "name_en": "Al-Mulaylih",
    "cities_id": 26,
    "order": 718,
    "order_en": 45,
    "name_ar": "المليليح",
    "lat": 24.79143,
    "lng": 39.183186,
    "is_other": false,
    "searchable_text": "المليليح al-mulaylih",
    "url_name_ar": "المليليح",
    "url_name_en": "al-mulaylih"
  },
  {
    "id": 18763,
    "name": "بواط",
    "name_en": "Buwat",
    "cities_id": 26,
    "order": 719,
    "order_en": 76,
    "name_ar": "بواط",
    "lat": 24.729485,
    "lng": 39.212812,
    "is_other": false,
    "searchable_text": "بواط buwat",
    "url_name_ar": "بواط",
    "url_name_en": "buwat"
  },
  {
    "id": 1407,
    "name": "أخرى",
    "name_en": "Other",
    "cities_id": 26,
    "order": 725,
    "order_en": 725,
    "name_ar": "أخرى",
    "lat": 24.524654,
    "lng": 39.569184,
    "is_other": true,
    "searchable_text": "اخري other",
    "url_name_ar": "أخرى",
    "url_name_en": "other"
  }
]